{"type": "FeatureCollection", "features": [ {"type": "Feature", "properties": {"norad_id": 34547, "name": "COSMOS 2251 DEB", "group": "cosmos-2251-debris", "lat": 1.0825998673533812, "lon": 88.27911239767506, "alt_km": 667.0337304902678, "timestamp": "2025-12-19T06:59:44.301247+00:00", "meta": {"OBJECT_NAME": "COSMOS 2251 DEB", "OBJECT_ID": "1993-036UH", "EPOCH": "2025-12-18T22:50:15.370656", "MEAN_MOTION": 14.72476564, "ECCENTRICITY": 0.00166938, "INCLINATION": 74.0316, "RA_OF_ASC_NODE": 88.6306, "ARG_OF_PERICENTER": 167.5365, "MEAN_ANOMALY": 192.6223, "EPHEMERIS_TYPE": 0, "CLASSIFICATION_TYPE": "U", "NORAD_CAT_ID": 34547, "ELEMENT_SET_NO": 999, "REV_AT_EPOCH": 88613, "BSTAR": 0.0013141249, "MEAN_MOTION_DOT": 8.336e-05, "MEAN_MOTION_DDOT": 0}, "tle": {"line1": "1 34547U 93036UH  25352.95156679  .00008336  00000+0  13141-2 0  9990", "line2": "2 34547  74.0316  88.6306 0016693 167.5365 192.6223 14.72476564886132"}}, "geometry": {"type": "Point", "coordinates": [88.27911239767506, 1.0825998673533812]}}, {"type": "Feature", "properties": {"norad_id": 34553, "name": "COSMOS 2251 DEB", "group": "cosmos-2251-debris", "lat": -73.87046048964463, "lon": 97.2775587408373, "alt_km": 694.2868767954815, "timestamp": "2025-12-19T06:59:44.301258+00:00", "meta": {"OBJECT_NAME": "COSMOS 2251 DEB", "OBJECT_ID": "1993-036UP", "EPOCH": "2025-12-18T15:14:08.118816", "MEAN_MOTION": 14.57775047, "ECCENTRICITY": 0.00191427, "INCLINATION": 74.0239, "RA_OF_ASC_NODE": 180.6753, "ARG_OF_PERICENTER": 257.537, "MEAN_ANOMALY": 169.798, "EPHEMERIS_TYPE": 0, "CLASSIFICATION_TYPE": "U", "NORAD_CAT_ID": 34553, "ELEMENT_SET_NO": 999, "REV_AT_EPOCH": 88182, "BSTAR": 0.00079077117, "MEAN_MOTION_DOT": 3.597e-05, "MEAN_MOTION_DDOT": 0}, "tle": {"line1": "1 34553U 93036UP  25352.63481619  .00003597  00000+0  79077-3 0  9992", "line2": "2 34553  74.0239 180.6753 0019142 257.5370 169.7980 14.57775047881827"}}, "geometry": {"type": "Point", "coordinates": [97.2775587408373, -73.87046048964463]}}, {"type": "Feature", "properties": {"norad_id": 34554, "name": "COSMOS 2251 DEB", "group": "cosmos-2251-debris", "lat": -73.99920917934675, "lon": -159.46497851096734, "alt_km": 768.4410508966012, "timestamp": "2025-12-19T06:59:44.301268+00:00", "meta": {"OBJECT_NAME": "COSMOS 2251 DEB", "OBJECT_ID": "1993-036UQ", "EPOCH": "2025-12-18T13:50:31.745184", "MEAN_MOTION": 14.37950273, "ECCENTRICITY": 0.00232506, "INCLINATION": 74.0391, "RA_OF_ASC_NODE": 288.2435, "ARG_OF_PERICENTER": 349.3985, "MEAN_ANOMALY": 183.4669, "EPHEMERIS_TYPE": 0, "CLASSIFICATION_TYPE": "U", "NORAD_CAT_ID": 34554, "ELEMENT_SET_NO": 999, "REV_AT_EPOCH": 87839, "BSTAR": 0.00025927252, "MEAN_MOTION_DOT": 7.59e-06, "MEAN_MOTION_DDOT": 0}, "tle": {"line1": "1 34554U 93036UQ  25352.57675631  .00000759  00000+0  25927-3 0  9997", "line2": "2 34554  74.0391 288.2435 0023250 349.3985 183.4669 14.37950273878395"}}, "geometry": {"type": "Point", "coordinates": [-159.46497851096734, -73.99920917934675]}}, {"type": "Feature", "properties": {"norad_id": 34556, "name": "COSMOS 2251 DEB", "group": "cosmos-2251-debris", "lat": -63.37977625803127, "lon": 77.09460495519622, "alt_km": 644.9197496869847, "timestamp": "2025-12-19T06:59:44.301278+00:00", "meta": {"OBJECT_NAME": "COSMOS 2251 DEB", "OBJECT_ID": "1993-036US", "EPOCH": "2025-12-18T17:12:46.541376", "MEAN_MOTION": 14.77982629, "ECCENTRICITY": 0.00070417, "INCLINATION": 74.0158, "RA_OF_ASC_NODE": 113.106, "ARG_OF_PERICENTER": 173.4887, "MEAN_ANOMALY": 303.7225, "EPHEMERIS_TYPE": 0, "CLASSIFICATION_TYPE": "U", "NORAD_CAT_ID": 34556, "ELEMENT_SET_NO": 999, "REV_AT_EPOCH": 88417, "BSTAR": 0.0017847298, "MEAN_MOTION_DOT": 0.00012871, "MEAN_MOTION_DDOT": 0}, "tle": {"line1": "1 34556U 93036US  25352.71720534  .00012871  00000+0  17847-2 0  9997", "line2": "2 34556  74.0158 113.1060 0007041 173.4887 303.7225 14.77982629884177"}}, "geometry": {"type": "Point", "coordinates": [77.09460495519622, -63.37977625803127]}}, {"type": "Feature", "properties": {"norad_id": 34560, "name": "COSMOS 2251 DEB", "group": "cosmos-2251-debris", "lat": 48.27648352330807, "lon": 148.1199195359392, "alt_km": 658.4849573891952, "timestamp": "2025-12-19T06:59:44.301288+00:00", "meta": {"OBJECT_NAME": "COSMOS 2251 DEB", "OBJECT_ID": "1993-036UW", "EPOCH": "2025-12-18T20:01:55.517376", "MEAN_MOTION": 14.72290219, "ECCENTRICITY": 0.00142436, "INCLINATION": 74.0159, "RA_OF_ASC_NODE": 130.259, "ARG_OF_PERICENTER": 212.1833, "MEAN_ANOMALY": 298.6419, "EPHEMERIS_TYPE": 0, "CLASSIFICATION_TYPE": "U", "NORAD_CAT_ID": 34560, "ELEMENT_SET_NO": 999, "REV_AT_EPOCH": 88341, "BSTAR": 0.0016989681, "MEAN_MOTION_DOT": 0.00010739, "MEAN_MOTION_DDOT": 0}, "tle": {"line1": "1 34560U 93036UW  25352.83467034  .00010739  00000+0  16990-2 0  9997", "line2": "2 34560  74.0159 130.2590 0014243 212.1833 298.6419 14.72290219883410"}}, "geometry": {"type": "Point", "coordinates": [148.1199195359392, 48.27648352330807]}}, {"type": "Feature", "properties": {"norad_id": 34563, "name": "COSMOS 2251 DEB", "group": "cosmos-2251-debris", "lat": -64.38729491607727, "lon": 154.8152634526052, "alt_km": 734.0206293629417, "timestamp": "2025-12-19T06:59:44.301299+00:00", "meta": {"OBJECT_NAME": "COSMOS 2251 DEB", "OBJECT_ID": "1993-036UZ", "EPOCH": "2025-12-18T23:34:47.077248", "MEAN_MOTION": 14.46528438, "ECCENTRICITY": 0.00138966, "INCLINATION": 74.0369, "RA_OF_ASC_NODE": 192.053, "ARG_OF_PERICENTER": 285.6893, "MEAN_ANOMALY": 196.1875, "EPHEMERIS_TYPE": 0, "CLASSIFICATION_TYPE": "U", "NORAD_CAT_ID": 34563, "ELEMENT_SET_NO": 999, "REV_AT_EPOCH": 88287, "BSTAR": 0.00032718131, "MEAN_MOTION_DOT": 1.153e-05, "MEAN_MOTION_DDOT": 0}, "tle": {"line1": "1 34563U 93036UZ  25352.98248932  .00001153  00000+0  32718-3 0  9997", "line2": "2 34563  74.0369 192.0530 0013896 285.6893 196.1875 14.46528438882875"}}, "geometry": {"type": "Point", "coordinates": [154.8152634526052, -64.38729491607727]}}, {"type": "Feature", "properties": {"norad_id": 34564, "name": "COSMOS 2251 DEB", "group": "cosmos-2251-debris", "lat": -63.231552079429434, "lon": -168.69353051607825, "alt_km": 752.0502658649921, "timestamp": "2025-12-19T06:59:44.301309+00:00", "meta": {"OBJECT_NAME": "COSMOS 2251 DEB", "OBJECT_ID": "1993-036VA", "EPOCH": "2025-12-18T20:13:14.968704", "MEAN_MOTION": 14.40700578, "ECCENTRICITY": 0.00192438, "INCLINATION": 74.0318, "RA_OF_ASC_NODE": 226.7209, "ARG_OF_PERICENTER": 329.7579, "MEAN_ANOMALY": 154.634, "EPHEMERIS_TYPE": 0, "CLASSIFICATION_TYPE": "U", "NORAD_CAT_ID": 34564, "ELEMENT_SET_NO": 999, "REV_AT_EPOCH": 88094, "BSTAR": 0.00019604533, "MEAN_MOTION_DOT": 6.01e-06, "MEAN_MOTION_DDOT": 0}, "tle": {"line1": "1 34564U 93036VA  25352.84253436  .00000601  00000+0  19605-3 0  9995", "line2": "2 34564  74.0318 226.7209 0019243 329.7579 154.6340 14.40700578880944"}}, "geometry": {"type": "Point", "coordinates": [-168.69353051607825, -63.231552079429434]}}, {"type": "Feature", "properties": {"norad_id": 34567, "name": "COSMOS 2251 DEB", "group": "cosmos-2251-debris", "lat": -51.273307910947786, "lon": 124.0817377449345, "alt_km": 816.0627069975135, "timestamp": "2025-12-19T06:59:44.301320+00:00", "meta": {"OBJECT_NAME": "COSMOS 2251 DEB", "OBJECT_ID": "1993-036VD", "EPOCH": "2025-12-18T21:53:53.679840", "MEAN_MOTION": 14.24023202, "ECCENTRICITY": 0.0074285, "INCLINATION": 74.0405, "RA_OF_ASC_NODE": 145.6706, "ARG_OF_PERICENTER": 218.6375, "MEAN_ANOMALY": 303.884, "EPHEMERIS_TYPE": 0, "CLASSIFICATION_TYPE": "U", "NORAD_CAT_ID": 34567, "ELEMENT_SET_NO": 999, "REV_AT_EPOCH": 87212, "BSTAR": 0.0001927977, "MEAN_MOTION_DOT": 4.3e-06, "MEAN_MOTION_DDOT": 0}, "tle": {"line1": "1 34567U 93036VD  25352.91242685  .00000430  00000+0  19280-3 0  9999", "line2": "2 34567  74.0405 145.6706 0074285 218.6375 303.8840 14.24023202872120"}}, "geometry": {"type": "Point", "coordinates": [124.0817377449345, -51.273307910947786]}}, {"type": "Feature", "properties": {"norad_id": 34569, "name": "COSMOS 2251 DEB", "group": "cosmos-2251-debris", "lat": 47.022647919579065, "lon": -11.658614904477114, "alt_km": 855.0677127897097, "timestamp": "2025-12-19T06:59:44.301330+00:00", "meta": {"OBJECT_NAME": "COSMOS 2251 DEB", "OBJECT_ID": "1993-036VF", "EPOCH": "2025-12-18T08:45:09.793152", "MEAN_MOTION": 14.24766688, "ECCENTRICITY": 0.01575553, "INCLINATION": 73.9892, "RA_OF_ASC_NODE": 187.965, "ARG_OF_PERICENTER": 15.0684, "MEAN_ANOMALY": 41.9169, "EPHEMERIS_TYPE": 0, "CLASSIFICATION_TYPE": "U", "NORAD_CAT_ID": 34569, "ELEMENT_SET_NO": 999, "REV_AT_EPOCH": 87048, "BSTAR": 0.00038085934, "MEAN_MOTION_DOT": 9.83e-06, "MEAN_MOTION_DDOT": 0}, "tle": {"line1": "1 34569U 93036VF  25352.36469668  .00000983  00000+0  38086-3 0  9990", "line2": "2 34569  73.9892 187.9650 0157555  15.0684  41.9169 14.24766688870484"}}, "geometry": {"type": "Point", "coordinates": [-11.658614904477114, 47.022647919579065]}}, {"type": "Feature", "properties": {"norad_id": 34570, "name": "COSMOS 2251 DEB", "group": "cosmos-2251-debris", "lat": -13.391034687947144, "lon": 30.81724741793219, "alt_km": 933.9759584798048, "timestamp": "2025-12-19T06:59:44.301340+00:00", "meta": {"OBJECT_NAME": "COSMOS 2251 DEB", "OBJECT_ID": "1993-036VG", "EPOCH": "2025-12-17T14:47:22.949376", "MEAN_MOTION": 13.99827814, "ECCENTRICITY": 0.01902686, "INCLINATION": 73.9566, "RA_OF_ASC_NODE": 209.802, "ARG_OF_PERICENTER": 91.1991, "MEAN_ANOMALY": 301.5791, "EPHEMERIS_TYPE": 0, "CLASSIFICATION_TYPE": "U", "NORAD_CAT_ID": 34570, "ELEMENT_SET_NO": 999, "REV_AT_EPOCH": 85669, "BSTAR": 0.00040162603, "MEAN_MOTION_DOT": 6.66e-06, "MEAN_MOTION_DDOT": 0}, "tle": {"line1": "1 34570U 93036VG  25351.61623784  .00000666  00000+0  40163-3 0  9997", "line2": "2 34570  73.9566 209.8020 0190268  91.1991 301.5791 13.99827814856696"}}, "geometry": {"type": "Point", "coordinates": [30.81724741793219, -13.391034687947144]}}]}